NORAD_CAT_ID,OBJECT_NAME,OBJECT_TYPE,EPOCH,MEAN_MOTION,ECCENTRICITY,INCLINATION,RA_OF_ASC_NODE,ARG_OF_PERICENTER,MEAN_ANOMALY,BSTAR,MEAN_MOTION_DOT,MEAN_MOTION_DDOT,TLE_LINE0,TLE_LINE1,TLE_LINE2,SEMIMAJOR_AXIS,PERIOD,APOGEE,PERIGEE,DECAYED
49442.0,STARLINK-3098,PAYLOAD,2022-11-11 04:08:34,15.08820555,0.0002526,53.2161,261.3062,29.9677,330.1459,0.00010549,1.39e-05,0.0,0 STARLINK-3098,1 49442U 21104AL  22315.17261778  .00001390  00000-0  10549-3 0  9998,2 49442  53.2161 261.3062 0002526  29.9677 330.1459 15.08820555 56643,6917.94,95.439,541.552,538.057,0.0
49442.0,STARLINK-3098,PAYLOAD,2022-11-11 08:54:43,15.08823662,0.0002469,53.216,260.4141,29.4086,330.7045,0.00031567,4.737e-05,0.0,0 STARLINK-3098,1 49442U 21104AL  22315.37133988  .00004737  00000-0  31567-3 0  9992,2 49442  53.2160 260.4141 0002469  29.4086 330.7045 15.08823662 55597,6917.93,95.439,541.503,538.087,0.0
49442.0,STARLINK-3098,PAYLOAD,2022-11-11 20:02:25,15.08840629,0.0002549,53.216,258.3325,31.1877,328.9266,0.00067449,0.00010463,0.0,0 STARLINK-3098,1 49442U 21104AL  22315.83502092  .00010463  00000-0  67449-3 0  9990,2 49442  53.2160 258.3325 0002549  31.1877 328.9266 15.08840629 56748,6917.878000000002,95.438,541.507,537.98,0.0
49442.0,STARLINK-3098,PAYLOAD,2022-11-12 03:59:21,15.08860785,0.0002608,53.2159,256.846,32.1155,327.9995,0.0013950999999999,0.00021998,0.0,0 STARLINK-3098,1 49442U 21104AL  22316.16621835  .00021998  00000-0  13951-2 0  9997,2 49442  53.2159 256.8460 0002608  32.1155 327.9995 15.08860785 56793,6917.816999999999,95.436,541.486,537.878,0.0
49442.0,STARLINK-3098,PAYLOAD,2022-11-13 02:14:44,15.08855945,0.0002664,53.2159,252.683,30.4088,329.7058,0.00040624,6.186e-05,0.0,0 STARLINK-3098,1 49442U 21104AL  22317.09357284  .00006186  00000-0  40624-3 0  9994,2 49442  53.2159 252.6830 0002664  30.4088 329.7058 15.08855945 56934,6917.831999999999,95.437,541.54,537.854,0.0
49442.0,STARLINK-3098,PAYLOAD,2022-11-14 02:05:32,15.08837352,0.0002799,53.215,248.225,32.9505,327.1661,0.00029871,4.469e-05,0.0,0 STARLINK-3098,1 49442U 21104AL  22318.08718009  .00004469  00000-0  29871-3 0  9993,2 49442  53.2150 248.2250 0002799  32.9505 327.1661 15.08837352 57083,6917.888000000001,95.438,541.69,537.817,0.0
49442.0,STARLINK-3098,PAYLOAD,2022-11-15 01:56:18,15.08850747,0.0002697,53.2155,243.7617,24.1882,335.9236,0.00041245,6.284e-05,0.0,0 STARLINK-3098,1 49442U 21104AL  22319.08077443  .00006284  00000-0  41245-3 0  9990,2 49442  53.2155 243.7617 0002697  24.1882 335.9236 15.08850747 56158,6917.848000000001,95.437,541.578,537.847,0.0
49442.0,STARLINK-3098,PAYLOAD,2022-11-16 04:57:52,15.08835644,0.0002693,53.2157,238.7066,28.1004,332.0133,-9.4797e-05,-1.797e-05,0.0,0 STARLINK-3098,1 49442U 21104AL  22320.20685609 -.00001797  00000-0 -94797-4 0  9992,2 49442  53.2157 238.7066 0002693  28.1004 332.0133 15.08835644 57400,6917.894,95.438,541.622,537.896,0.0
49442.0,STARLINK-3098,PAYLOAD,2022-11-17 01:37:52,15.08845368,0.0002749,53.2162,234.8428,32.4709,327.6451,0.00015493,2.179e-05,0.0,0 STARLINK-3098,1 49442U 21104AL  22321.06797267  .00002179  00000-0  15493-3 0  9999,2 49442  53.2162 234.8428 0002749  32.4709 327.6451 15.08845368 57538,6917.864000000001,95.437,541.631,537.827,0.0
49442.0,STARLINK-3098,PAYLOAD,2022-11-17 06:24:02,15.08838337,0.0002837,53.2164,233.9495,32.4331,327.6835,2.8433e-05,1.64e-06,0.0,0 STARLINK-3098,1 49442U 21104AL  22321.26669587  .00000164  00000-0  28433-4 0  9995,2 49442  53.2164 233.9495 0002837  32.4331 327.6835 15.08838337 57560,6917.885,95.438,541.7130000000002,537.788,0.0
49442.0,STARLINK-3098,PAYLOAD,2022-11-17 11:10:11,15.08838918,0.0002823,53.2163,233.0574,31.6137,328.5024,5.3873e-05,5.69e-06,0.0,0 STARLINK-3098,1 49442U 21104AL  22321.46541597  .00000569  00000-0  53873-4 0  9992,2 49442  53.2163 233.0574 0002823  31.6137 328.5024 15.08838918 56517,6917.884,95.438,541.702,537.7959999999998,0.0
49442.0,STARLINK-3098,PAYLOAD,2022-11-17 20:42:30,15.08842796,0.0002587,53.2165,231.2727,28.5181,331.5952,6.353399999999999e-05,7.23e-06,0.0,0 STARLINK-3098,1 49442U 21104AL  22321.86285076  .00000723  00000-0  63534-4 0  9990,2 49442  53.2165 231.2727 0002587  28.5181 331.5952 15.08842796 56579,6917.871999999999,95.437,541.526,537.947,0.0
49442.0,STARLINK-3098,PAYLOAD,2022-11-18 11:00:59,15.08838355,0.0002664,53.2161,228.5966,32.0213,328.0941,0.00011603,1.559e-05,0.0,0 STARLINK-3098,1 49442U 21104AL  22322.45901669  .00001559  00000-0  11603-3 0  9996,2 49442  53.2161 228.5966 0002664  32.0213 328.0941 15.08838355 57746,6917.885,95.438,541.5930000000002,537.9069999999998,0.0
49442.0,STARLINK-3098,PAYLOAD,2022-11-19 10:51:45,15.08844806,0.0002766,53.2154,224.1348,31.0749,329.0407,0.00011502,1.543e-05,0.0,0 STARLINK-3098,1 49442U 21104AL  22323.45261317  .00001543  00000-0  11502-3 0  9997,2 49442  53.2154 224.1348 0002766  31.0749 329.0407 15.08844806 56813,6917.866,95.437,541.644,537.817,0.0
49442.0,STARLINK-3098,PAYLOAD,2022-11-20 02:45:37,15.08842998,0.000271,53.2162,221.1628,31.2686,328.8467,0.00016901,2.403e-05,0.0,0 STARLINK-3098,1 49442U 21104AL  22324.11501338  .00002403  00000-0  16901-3 0  9995,2 49442  53.2162 221.1628 0002710  31.2686 328.8467 15.08842998 57994,6917.871,95.437,541.611,537.861,0.0
49442.0,STARLINK-3098,PAYLOAD,2022-11-20 17:04:05,15.0884363,0.0002744,53.2163,218.4871,30.7244,329.3908,9.2501e-05,1.184e-05,0.0,0 STARLINK-3098,1 49442U 21104AL  22324.71117356  .00001184  00000-0  92501-4 0  9990,2 49442  53.2163 218.4871 0002744  30.7244 329.3908 15.08843630 57007,6917.869000000002,95.437,541.633,537.836,0.0
49442.0,STARLINK-3098,PAYLOAD,2022-11-21 04:11:46,15.08868806,0.0002859,53.2171,216.4049,29.5844,330.5309,-0.00040304,-6.703e-05,0.0,0 STARLINK-3098,1 49442U 21104AL  22325.17484724 -.00006703  00000-0 -40304-3 0  9994,2 49442  53.2171 216.4049 0002859  29.5844 330.5309 15.08868806 58158,6917.792,95.436,541.635,537.68,0.0
49442.0,STARLINK-3098,PAYLOAD,2022-11-21 10:33:20,15.08838721,0.000273,53.2171,215.2156,32.3249,327.791,5.586e-05,6.01e-06,0.0,0 STARLINK-3098,1 49442U 21104AL  22325.43981711  .00000601  00000-0  55860-4 0  9994,2 49442  53.2171 215.2156 0002730  32.3249 327.7910 15.08838721 58196,6917.884,95.438,541.638,537.861,0.0
49442.0,STARLINK-3098,PAYLOAD,2022-11-21 20:05:38,15.08845739,0.000275,53.2166,213.4318,30.9484,329.167,9.2358e-05,1.182e-05,0.0,0 STARLINK-3098,1 49442U 21104AL  22325.83725030  .00001182  00000-0  92358-4 0  9996,2 49442  53.2166 213.4318 0002750  30.9484 329.1670 15.08845739 57170,6917.863,95.437,541.63,537.825,0.0
49442.0,STARLINK-3098,PAYLOAD,2022-11-22 04:02:34,15.08839201,0.0002732,53.217,211.9445,33.789,326.3276,-9.2377e-06,-4.36e-06,0.0,0 STARLINK-3098,1 49442U 21104AL  22326.16845683 -.00000436  00000-0 -92377-5 0  9995,2 49442  53.2170 211.9445 0002732  33.7890 326.3276 15.08839201 57225,6917.8830000000025,95.438,541.638,537.8580000000002,0.0
49442.0,STARLINK-3098,PAYLOAD,2022-11-22 19:56:25,15.08838101,0.0002748,53.2166,208.971,31.5421,328.5735,0.00011492,1.541e-05,0.0,0 STARLINK-3098,1 49442U 21104AL  22326.83085372  .00001541  00000-0  11492-3 0  9993,2 49442  53.2166 208.9710 0002748  31.5421 328.5735 15.08838101 57327,6917.886,95.438,541.6519999999998,537.85,0.0
49442.0,STARLINK-3098,PAYLOAD,2022-11-23 02:17:59,15.08828623,0.0002785,53.2167,207.7816,32.9214,327.1952,2.9684e-05,1.84e-06,0.0,0 STARLINK-3098,1 49442U 21104AL  22327.09582384  .00000184  00000-0  29684-4 0  9992,2 49442  53.2167 207.7816 0002785  32.9214 327.1952 15.08828623 58446,6917.915,95.438,541.707,537.854,0.0
49442.0,STARLINK-3098,PAYLOAD,2022-11-23 08:39:31,15.08832388,0.0002802,53.2167,206.5923,33.4632,326.6537,4.2659e-05,3.9e-06,0.0,0 STARLINK-3098,1 49442U 21104AL  22327.36078308  .00000390  00000-0  42659-4 0  9994,2 49442  53.2167 206.5923 0002802  33.4632 326.6537 15.08832388 57403,6917.904,95.438,541.707,537.83,0.0
49442.0,STARLINK-3098,PAYLOAD,2022-11-23 21:22:36,15.08842918,0.0002615,53.2167,204.2127,36.8799,323.2373,3.7869e-05,3.14e-06,0.0,0 STARLINK-3098,1 49442U 21104AL  22327.89069670  .00000314  00000-0  37869-4 0  9997,2 49442  53.2167 204.2127 0002615  36.8799 323.2373 15.08842918 58566,6917.871,95.437,541.545,537.927,0.0
49442.0,STARLINK-3098,PAYLOAD,2022-11-24 08:30:18,15.0884172,0.0002799,53.2171,202.1321,36.4065,323.7117,0.0001384,1.915e-05,0.0,0 STARLINK-3098,1 49442U 21104AL  22328.35437730  .00001915  00000-0  13840-3 0  9995,2 49442  53.2171 202.1321 0002799  36.4065 323.7117 15.08841720 57558,6917.875,95.437,541.6759999999998,537.804,0.0
49442.0,STARLINK-3098,PAYLOAD,2022-11-24 22:48:47,15.08835719,0.000284,53.2178,199.457,35.0178,325.1001,2.037e-05,3.6e-07,0.0,0 STARLINK-3098,1 49442U 21104AL  22328.95054470  .00000036  00000-0  20370-4 0  9997,2 49442  53.2178 199.4570 0002840  35.0178 325.1001 15.08835719 58725,6917.893,95.438,541.7230000000002,537.794,0.0
49442.0,STARLINK-3098,PAYLOAD,2022-11-25 01:59:33,15.088351800000002,0.0002848,53.2174,198.8614,34.3902,325.7274,-3.0931e-06,-3.38e-06,0.0,0 STARLINK-3098,1 49442U 21104AL  22329.08302563 -.00000338  00000-0 -30931-5 0  9993,2 49442  53.2174 198.8614 0002848  34.3902 325.7274 15.08835180 57660,6917.895,95.438,541.73,537.79,0.0
49442.0,STARLINK-3098,PAYLOAD,2022-11-25 19:28:47,15.08841021,0.0002804,53.2171,195.5906,37.2557,322.8629,0.00010126,1.323e-05,0.0,0 STARLINK-3098,1 49442U 21104AL  22329.81166181  .00001323  00000-0  10126-3 0  9993,2 49442  53.2171 195.5906 0002804  37.2557 322.8629 15.08841021 57770,6917.877,95.437,541.682,537.802,0.0
49442.0,STARLINK-3098,PAYLOAD,2022-11-26 00:14:56,15.08842671,0.0002828,53.2166,194.6982,38.1371,321.9821,0.0001659,2.353e-05,0.0,0 STARLINK-3098,1 49442U 21104AL  22330.01037936  .00002353  00000-0  16590-3 0  9997,2 49442  53.2166 194.6982 0002828  38.1371 321.9821 15.08842671 58887,6917.871999999999,95.437,541.694,537.781,0.0
